H1 CPF 01  gfz 2021 05 14 12  6342 tandemx   
H2 1003001  6202 36605    2021 05 14 12 59 42 2021 05 19 00 00 42   120 1 1  0 0 0
H9
10 0 59352  48942.000000  0    1001705.299     70463.209   6804004.905
10 0 59352  49062.000000  0     629967.787   -771548.295   6805194.368
10 0 59352  49182.000000  0     232681.884  -1593368.951   6686810.018
10 0 59352  49302.000000  0    -182739.362  -2380274.395   6450919.811
10 0 59352  49422.000000  0    -608314.439  -3118277.889   6101645.560
10 0 59352  49542.000000  0   -1035644.779  -3794379.822   5645092.992
10 0 59352  49662.000000  0   -1456077.431  -4396797.965   5089251.094
10 0 59352  49782.000000  0   -1860879.220  -4915178.441   4443861.065
10 0 59352  49902.000000  0   -2241418.261  -5340782.977   3720251.660
10 0 59352  50022.000000  0   -2589347.986  -5666645.700   2931141.907
10 0 59352  50142.000000  0   -2896788.704  -5887694.092   2090416.467
10 0 59352  50262.000000  0   -3156502.996  -6000833.636   1212878.559
10 0 59352  50382.000000  0   -3362060.861  -6004993.720    313983.748
10 0 59352  50502.000000  0   -3507990.196  -5901132.879   -590439.807
10 0 59352  50622.000000  0   -3589908.844  -5692203.147  -1484479.063
10 0 59352  50742.000000  0   -3604634.568  -5383073.525  -2352425.087
10 0 59352  50862.000000  0   -3550270.308  -4980415.013  -3179056.422
10 0 59352  50982.000000  0   -3426262.183  -4492550.552  -3949910.403
10 0 59352  51102.000000  0   -3233429.351  -3929275.176  -4651536.097
10 0 59352  51222.000000  0   -2973966.352  -3301651.845  -5271725.172
10 0 59352  51342.000000  0   -2651418.397  -2621787.391  -5799717.117
10 0 59352  51462.000000  0   -2270630.619  -1902594.484  -6226376.255
10 0 59352  51582.000000  0   -1837671.863  -1157544.246  -6544339.383
10 0 59352  51702.000000  0   -1359735.150   -400414.205  -6748130.919
10 0 59352  51822.000000  0    -845018.270    354962.780  -6834245.908
10 0 59352  51942.000000  0    -302585.386   1094944.761  -6801203.557
10 0 59352  52062.000000  0     257788.951   1806320.611  -6649569.647
10 0 59352  52182.000000  0     825790.183   2476539.548  -6381949.272
10 0 59352  52302.000000  0    1390749.962   3093929.304  -6002948.444
10 0 59352  52422.000000  0    1941842.122   3647898.179  -5519102.404
10 0 59352  52542.000000  0    2468286.646   4129117.506  -4938773.529
10 0 59352  52662.000000  0    2959558.652   4529683.005  -4272018.685
10 0 59352  52782.000000  0    3405598.527   4843251.970  -3530425.418
10 0 59352  52902.000000  0    3797019.143   5065151.974  -2726919.147
10 0 59352  53022.000000  0    4125306.157   5192458.295  -1875542.543
10 0 59352  53142.000000  0    4383004.539   5224037.332   -991211.637
10 0 59352  53262.000000  0    4563888.220   5160556.086    -89452.003
10 0 59352  53382.000000  0    4663107.337   5004453.560    813880.135
10 0 59352  53502.000000  0    4677307.570   4759876.234   1702883.718
10 0 59352  53622.000000  0    4604721.624   4432581.309   2561900.178
10 0 59352  53742.000000  0    4445229.138   4029806.246   3375799.531
10 0 59352  53862.000000  0    4200380.371   3560108.421   4130254.388
10 0 59352  53982.000000  0    3873386.373   3033180.225   4811995.664
10 0 59352  54102.000000  0    3469077.285   2459645.724   5409048.344
10 0 59352  54222.000000  0    2993824.636   1850840.867   5910940.786
10 0 59352  54342.000000  0    2455435.829   1218586.045   6308882.858
10 0 59352  54462.000000  0    1863021.593    574953.379   6595913.809
10 0 59352  54582.000000  0    1226838.447    -67963.801   6767017.443
10 0 59352  54702.000000  0     558109.088   -698277.085   6819206.168
10 0 59352  54822.000000  0    -131176.609  -1304523.401   6751570.103
10 0 59352  54942.000000  0    -828476.792  -1875873.165   6565291.354
10 0 59352  55062.000000  0   -1520925.468  -2402323.864   6263623.356
10 0 59352  55182.000000  0   -2195567.638  -2874874.825   5851836.641
10 0 59352  55302.000000  0   -2839600.599  -3285682.943   5337134.490
10 0 59352  55422.000000  0   -3440620.564  -3628197.475   4728534.347
10 0 59352  55542.000000  0   -3986866.421  -3897268.207   4036713.676
10 0 59352  55662.000000  0   -4467453.933  -4089225.936   3273825.671
10 0 59352  55782.000000  0   -4872597.160  -4201933.995   2453287.772
10 0 59352  55902.000000  0   -5193813.298  -4234809.978   1589544.759
10 0 59352  56022.000000  0   -5424104.046  -4188814.952    697809.326
10 0 59352  56142.000000  0   -5558108.963  -4066410.692   -206212.729
10 0 59352  56262.000000  0   -5592227.006  -3871486.326  -1106607.755
10 0 59352  56382.000000  0   -5524702.557  -3609255.613  -1987544.460
10 0 59352  56502.000000  0   -5355672.296  -3286126.777  -2833560.639
10 0 59352  56622.000000  0   -5087174.070  -2909550.687  -3629839.322
10 0 59352  56742.000000  0   -4723118.292  -2487850.730  -4362469.782
10 0 59352  56862.000000  0   -4269223.071  -2030039.134  -5018688.688
10 0 59352  56982.000000  0   -3732914.819  -1545624.435  -5587097.030
10 0 59352  57102.000000  0   -3123197.727  -1044414.022  -6057849.523
10 0 59352  57222.000000  0   -2450495.650   -536316.641  -6422814.132
10 0 59352  57342.000000  0   -1726469.326    -31149.103  -6675701.047
10 0 59352  57462.000000  0    -963812.797    461549.051  -6812159.037
10 0 59352  57582.000000  0    -176034.432    932690.380  -6829841.683
10 0 59352  57702.000000  0     622776.583   1373802.826  -6728442.903
10 0 59352  57822.000000  0    1418195.025   1777177.346  -6509703.571
10 0 59352  57942.000000  0    2195715.119   2136000.932  -6177385.830
10 0 59352  58062.000000  0    2941010.342   2444470.789  -5737215.255
10 0 59352  58182.000000  0    3640193.981   2697888.318  -5196791.002
10 0 59352  58302.000000  0    4280077.012   2892732.077  -4565467.025
10 0 59352  58422.000000  0    4848420.825   3026708.674  -3854201.536
10 0 59352  58542.000000  0    5334177.202   3098778.916  -3075375.381
10 0 59352  58662.000000  0    5727710.266   3109159.573  -2242583.916
10 0 59352  58782.000000  0    6020997.720   3059300.393  -1370402.781
10 0 59352  58902.000000  0    6207802.570   2951834.131   -474131.434
10 0 59352  59022.000000  0    6283812.336   2790502.458    430479.539
10 0 59352  59142.000000  0    6246740.277   2580056.981   1327512.446
10 0 59352  59262.000000  0    6096386.972   2326141.132   2201169.835
10 0 59352  59382.000000  0    5834660.616   2035154.150   3036062.220
10 0 59352  59502.000000  0    5465553.272   1714099.500   3817487.593
10 0 59352  59622.000000  0    4995074.855   1370423.061   4531696.565
10 0 59352  59742.000000  0    4431146.816   1011844.930   5166135.938
10 0 59352  59862.000000  0    3783461.183    646189.402   5709669.452
10 0 59352  59982.000000  0    3063303.655    281216.129   6152771.215
10 0 59352  60102.000000  0    2283348.627    -75541.690   6487685.635
10 0 59352  60222.000000  0    1457431.982   -416929.942   6708557.208
10 0 59352  60342.000000  0     600302.454   -736315.448   6811528.703
10 0 59352  60462.000000  0    -272644.208  -1027713.856   6794803.849
10 0 59352  60582.000000  0   -1145641.593  -1285901.180   6658675.870
10 0 59352  60702.000000  0   -2002836.443  -1506507.647   6405521.593
10 0 59352  60822.000000  0   -2828574.505  -1686091.053   6039761.799
10 0 59352  60942.000000  0   -3607686.146  -1822190.148   5567791.381
10 0 59352  61062.000000  0   -4325770.010  -1913358.367   4997874.481
10 0 59352  61182.000000  0   -4969465.108  -1959175.754   4340004.710
10 0 59352  61302.000000  0   -5526706.764  -1960238.066   3605733.302
10 0 59352  61422.000000  0   -5986960.311  -1918123.158   2807968.583
10 0 59352  61542.000000  0   -6341429.154  -1835336.756   1960750.353
10 0 59352  61662.000000  0   -6583233.463  -1715238.471   1078999.752
10 0 59352  61782.000000  0   -6707549.992  -1561948.269    178248.837
10 0 59352  61902.000000  0   -6711711.312  -1380236.118   -725641.129
10 0 59352  62022.000000  0   -6595261.333  -1175397.966  -1616768.440
10 0 59352  62142.000000  0   -6359965.761   -953121.573  -2479478.937
10 0 59352  62262.000000  0   -6009778.546   -719346.308  -3298647.157
10 0 59352  62382.000000  0   -5550764.921   -480119.411  -4059945.563
10 0 59352  62502.000000  0   -4990983.793   -241451.821  -4750095.140
10 0 59352  62622.000000  0   -4340333.404     -9178.461  -5357092.928
10 0 59352  62742.000000  0   -3610364.424    211173.782  -5870413.745
10 0 59352  62862.000000  0   -2814064.868    414508.029  -6281181.625
10 0 59352  62982.000000  0   -1965624.170    596266.722  -6582310.665
10 0 59352  63102.000000  0   -1080179.288    752526.117  -6768616.545
10 0 59352  63222.000000  0    -173546.962    880075.750  -6836895.593
10 0 59352  63342.000000  0     738051.989    976480.818  -6785972.574
10 0 59352  63462.000000  0    1638274.770   1040126.447  -6616721.099
10 0 59352  63582.000000  0    2510944.060   1070244.628  -6332051.284
10 0 59352  63702.000000  0    3340333.500   1066922.550  -5936864.790
10 0 59352  63822.000000  0    4111447.187   1031091.944  -5437978.033
10 0 59352  63942.000000  0    4810290.114    964499.656  -4844016.308
10 0 59352  64062.000000  0    5424126.613    869660.371  -4165276.372
10 0 59352  64182.000000  0    5941719.959    749791.648  -3413557.830
10 0 59352  64302.000000  0    6353548.004    608732.156  -2601966.353
10 0 59352  64422.000000  0    6651991.143    450845.241  -1744690.729
10 0 59352  64542.000000  0    6831486.775    280909.068   -856755.023
10 0 59352  64662.000000  0    6888643.354    103996.193     46248.103
10 0 59352  64782.000000  0    6822313.168    -74653.905    948436.443
10 0 59352  64902.000000  0    6633621.049   -249767.602   1833925.660
10 0 59352  65022.000000  0    6325946.933   -416170.641   2687118.435
10 0 59352  65142.000000  0    5904861.617   -568919.440   3492988.351
10 0 59352  65262.000000  0    5378018.444   -703426.147   4237350.261
10 0 59352  65382.000000  0    4755006.793   -815574.734   4907114.108
99
